#aV2009  8 17  0  0   .00000000      96 DD+AD WGS84 FIT  NGA
## 1545  86400.00000000   900.00000000 55060  .0000000000000
+   31     1  2  3  4  6  7  8  9 10 11 12 13 14 15 16 17 18
+         19 20 21 22 23 24 25 26 27 28 29 30 31 32  0  0  0
+          0  0  0  0  0  0  0  0  0  0  0  0  0  0  0  0  0
+          0  0  0  0  0  0  0  0  0  0  0  0  0  0  0  0  0
+          0  0  0  0  0  0  0  0  0  0  0  0  0  0  0  0  0
++         0  0  0  0  0  0  0  0  0  0  0  0  0  0  0  0  0
++         0  0  0  0  0  0  0  0  0  0  0  0  0  0  0  0  0
++         0  0  0  0  0  0  0  0  0  0  0  0  0  0  0  0  0
++         0  0  0  0  0  0  0  0  0  0  0  0  0  0  0  0  0
++         0  0  0  0  0  0  0  0  0  0  0  0  0  0  0  0  0
%c cc cc ccc ccc cccc cccc cccc cccc ccccc ccccc ccccc ccccc
%c cc cc ccc ccc cccc cccc cccc cccc ccccc ccccc ccccc ccccc
%f  0.0000000  0.000000000  0.00000000000  0.000000000000000
%f  0.0000000  0.000000000  0.00000000000  0.000000000000000
%i    0    0    0    0      0      0      0      0         0
%i    0    0    0    0      0      0      0      0         0
/*      NGA, ST. LOUIS,MO.                                  
/*   EPHEMERIS COMPUTED FROM  3 DAYS OF DATA                
/* CCCCCCCCCCCCCCCCCCCCCCCCCCCCCCCCCCCCCCCCCCCCCCCCCCCCCCCCC
/* CCCCCCCCCCCCCCCCCCCCCCCCCCCCCCCCCCCCCCCCCCCCCCCCCCCCCCCCC
*  2009  8 17  4 15   .00000000                                                 
P  1 -16841.839309 -16271.888966  12532.678137    -59.047630                    
V  1  -4496.839082 -15547.604020 -25922.083280       .013517                    
P  2  10558.495827 -13646.350975  20007.367626    165.845342                    
V  2  25505.413338   3900.342327 -11178.005270       .023692                    
P  3  -8130.215622  24287.709115  -6611.666330    434.712533                    
V  3  -7439.655686   5094.745598  29662.360302       .049685                    
P  4  21345.864984  -7784.845731  13911.854891   -223.113407                    
V  4  17410.116092   4451.586697 -23620.812421      -.170005                    
P  6 -12853.736508  23007.632239  -2735.003643    220.409217                    
V  6  -5149.033651   1043.615791  30950.975943       .085368                    
P  7  24879.323856   7111.024092   6290.213373     13.255664                    
V  7  -8191.672211   1474.858860  30483.680979      -.007125                    
P  8  25988.553461     41.859588  -6721.626173   -217.016742                    
V  8   7968.836189   2803.736981  30541.599249      -.018351                    
P  9 -11148.352479 -14409.207288 -20015.288219     72.402474                    
V  9  23912.030497    994.161575 -14459.083755       .021071                    
P 10   1341.642457 -22369.934551  13828.125285    -21.420849                    
V 10   9176.082301  15664.646501  24494.701355      -.008258                    
P 11  14435.974726  13317.273604 -18234.850384    -15.417785                    
V 11 -22542.911960   4635.828843 -14269.311033      -.016980                    
P 12 -11848.999880 -23756.890188   2127.213772   -233.302494                    
V 12   1235.414704  -3385.708202 -31678.531447       .059024                    
P 13  15184.971503   3459.196335  21389.233099    303.274026                    
V 13 -17127.858415  21352.614213   8638.982311       .005695                    
P 14 -20028.601418  12080.222863 -12333.512604    -64.128592                    
V 14   8535.289933 -13488.613876 -26922.254864       .054052                    
P 15   3991.042952 -22331.561105 -13734.219828   -314.587802                    
V 15  12069.239990 -12913.797084  24524.065639      -.017989                    
P 16  -5655.328355  18660.714689  17967.354698     22.201403                    
V 16 -10137.996027 -20471.464031  18358.617944      -.037421                    
P 17  20058.210752 -11640.217395 -12696.946561     77.892552                    
V 17  -7937.067610  14465.127383 -25843.710764       .027379                    
P 18 -17561.917154 -10160.800845 -17089.920705      5.689027                    
V 18  -6533.629039 -21184.604353  18660.338175       .028975                    
P 19  -3573.304780  21040.319937 -15583.277866     14.823803                    
V 19 -14683.587832  13762.391167  22135.519431      -.015520                    
P 20  13435.906312  22658.785010   3456.419299     74.577823                    
V 20  -1127.934278   5551.970867 -30867.534481      -.009269                    
P 21 -26095.384730  -5798.705579   3312.733750     -3.596964                    
V 21   4171.341379  -2569.238910  30363.418427      -.022374                    
P 22 -15447.134265   3192.935736 -21210.366547    193.083735                    
V 22  -9847.922233 -25566.717810   3216.897242      -.007222                    
P 23   6164.608755  15394.242763  20634.318187    389.441896                    
V 23 -16510.679481  20552.037686 -10675.439351      -.002694                    
P 24 -17898.186421 -13300.327871  14363.294332    212.982426                    
V 24  18315.821184    427.313947  23677.414531       .030883                    
P 25  20504.173683   9842.742095  13893.789907    556.125762                    
V 25 -17162.219993   1713.472042  24904.595654       .159316                    
P 26 -18119.099328   1312.529318 -20120.893964     64.416154                    
V 26  15016.626380 -18837.593170 -14690.163509      -.003854                    
P 27  -5629.472278 -14465.264846 -20874.078831     74.881185                    
V 27  28067.632692    804.754626  -7861.271680       .032648                    
P 28  15715.359575    259.652613 -21022.913760    -26.211193                    
V 28   9833.499062  25839.371017   7210.933045      -.000551                    
P 29 -14293.231909  -6224.409483  21598.935712     49.324687                    
V 29  16340.944727 -21743.783264   4611.829283       .034196                    
P 30 -16908.191313 -17346.917148  10595.073903    169.365545                    
V 30  -3736.973730 -13773.367182 -27453.141477       .029940                    
P 31 -19457.698421   8862.516841  16054.476429    -64.864209                    
V 31 -19642.335141  -3659.848822 -21928.217227      -.001042                    
P 32   7125.058283  25613.193173  -2170.426499    213.617079                    
V 32  -3435.310164  -2214.024435 -31467.485329      -.066387                    
EOF
